CARTOSAT-2D             
1 41948U 17008A   23013.66588164  .00006648  00000+0  31878-3 0  9998
2 41948  97.4378  75.5376 0005952 328.2801  31.8077 15.19216202327719
SENTINEL-2B             
1 42063U 17013A   23014.48716707  .00000088  00000+0  50352-4 0  9991
2 42063  98.5692  91.2020 0001030  69.7547 290.3628 14.30824653305949
ZHUHAI-1 02 (CAS-4B)    
1 42759U 17034B   23014.60376729  .00008305  00000+0  46111-3 0  9993
2 42759  43.0172 247.3336 0010144 196.0707 254.0674 15.13975823308333
NUSAT-3 (MILANESAT)     
1 42760U 17034C   23014.62259218  .00008992  00000+0  48523-3 0  9991
2 42760  43.0132 240.5430 0011552 219.3387 174.0462 15.14900417308422
ZHUHAI-1 01 (CAS-4A)    
1 42761U 17034D   23014.62821619  .00008573  00000+0  47423-3 0  9995
2 42761  43.0163 245.8261 0010706 197.2852 258.9177 15.14070708308345
CARTOSAT-2E             
1 42767U 17036C   23014.03452728  .00006098  00000+0  29248-3 0  9994
2 42767  97.4268  76.4550 0008965  14.2339 103.4092 15.19222545308333
FORMOSAT-5              
1 42920U 17049A   23014.19130392  .00000426  00000+0  11929-3 0  9992
2 42920  98.3369  93.1446 0010417 328.7033  31.3551 14.50823477285423
SENTINEL-5P             
1 42969U 17064A   23013.58812043  .00000191  00000+0  11161-3 0  9991
2 42969  98.7551 315.6209 0001178  86.7284 273.4027 14.19539631272137
SKYSAT-C11              
1 42987U 17068A   23014.27981690  .00027741  00000+0  68900-3 0  9990
2 42987  97.3075 137.2050 0003234   2.2681 357.8580 15.40292728290807
SKYSAT-C10              
1 42988U 17068B   23013.59870965  .00021334  00000+0  53159-3 0  9999
2 42988  97.3130 136.9044 0001118 215.4363 144.6809 15.40250211290721
SKYSAT-C9               
1 42989U 17068C   23014.29612766  .00027921  00000+0  69157-3 0  9994
2 42989  97.3058 136.5799 0002101  94.0097 266.1389 15.40377696291026
SKYSAT-C8               
1 42990U 17068D   23014.29585607  .00019468  00000+0  52920-3 0  9996
2 42990  97.3135 138.0455 0000938 118.8901 241.2569 15.37593252290853
SKYSAT-C7               
1 42991U 17068E   23014.14017996  .00024126  00000+0  59953-3 0  9992
2 42991  97.3144 137.9827 0003559   4.8441 355.2839 15.40303830290839
SKYSAT-C6               
1 42992U 17068F   23014.26188902  .00028230  00000+0  70120-3 0  9991
2 42992  97.3164 138.5411 0003402 341.8409  18.2715 15.40286881290861
CARTOSAT-2F             
1 43111U 18004A   23014.59804278  .00007471  00000+0  35750-3 0  9997
2 43111  97.4219  76.7641 0005203  27.1806 115.6890 15.19246675277607
NUSAT-4 (ADA)           
1 43195U 18015D   23014.39829444  .00028237  00000+0  78234-3 0  9998
2 43195  97.5568 164.7873 0014046  20.8875  63.3591 15.36829646275556
NUSAT-5 (MARYAM)        
1 43204U 18015K   23014.39676531  .00028966  00000+0  78820-3 0  9996
2 43204  97.5578 165.5327 0013472  21.3114  63.3568 15.37392393275194
GAOFEN 1-02             
1 43259U 18031A   23014.20560346  .00001322  00000+0  19662-3 0  9996
2 43259  97.8810  91.0312 0004690  58.2264 301.9414 14.76562015258240
GAOFEN 1-03             
1 43260U 18031B   23014.18400033  .00001327  00000+0  19731-3 0  9993
2 43260  97.8805  90.9653 0006512 113.7982 246.3928 14.76569375258238
GAOFEN 1-04             
1 43262U 18031D   23014.02375692 -.00004013  00000+0 -56902-3 0  9998
2 43262  97.8801  90.8634 0006445  80.1185 279.8893 14.76520016258209
SENTINEL-3B             
1 43437U 18039A   23014.12423383  .00000226  00000+0  11144-3 0  9991
2 43437  98.6207  83.4069 0000996  72.6460 287.4830 14.26736752245875
GAOFEN 5-01             
1 43461U 18043A   23014.23855495  .00000914  00000+0  20831-3 0  9995
2 43461  98.2943 318.8125 0002306  33.5894 326.5451 14.58159110249372
GAOFEN 6                
1 43484U 18048A   23014.19321096  .00001193  00000+0  17808-3 0  9995
2 43484  97.9135  95.5377 0007346 246.2583 113.7880 14.76600293248937
GAOFEN 11-1             
1 43585U 18063A   23014.37948918  .00009736  00000+0  40732-3 0  9995
2 43585  97.2988  90.1026 0012777 156.9020 333.1201 15.23703370248508
AEOLUS                  
1 43600U 18066A   23013.62246692  .00163467  00000+0  61976-3 0  9998
2 43600  96.7310  21.2414 0008106 112.1259 248.0875 15.87182880254453
ICESAT-2                
1 43613U 18070A   23014.42567599  .00022689  00000+0  82316-3 0  9999
2 43613  92.0049 315.0057 0000949 233.1467 126.9695 15.28261202241590
HYSIS                   
1 43719U 18096A   23014.49658332  .00001668  00000+0  23452-3 0  9997
2 43719  97.9338  82.9282 0001045 196.1694 163.9514 14.78671057222744
KAZSTSAT                
1 43783U 18099AB  23014.12380913  .00002224  00000+0  21186-3 0  9999
2 43783  97.6044  78.1835 0006374 289.6394  70.4139 14.94363231224266
SAUDISAT 5A             
1 43831U 18102A   23014.26885453  .00005035  00000+0  31123-3 0  9997
2 43831  97.4754  87.5305 0014169 168.8573 277.1052 15.10211669225986
SAUDISAT 5B             
1 43833U 18102C   23014.29566861  .00005203  00000+0  31740-3 0  9993
2 43833  97.4775  88.6985 0014867 174.9072 270.9993 15.10671983226046
GAOFEN 10R              
1 44622U 19066A   23014.22111970  .00002585  00000+0  34067-3 0  9995
2 44622  97.9154 315.4652 0004050  55.2708 304.8890 14.80967592177207
CARTOSAT-3              
1 44804U 19081A   23014.26346620  .00005478  00000+0  26230-3 0  9997
2 44804  97.3705  76.1886 0011398 195.4117 235.5393 15.19299443173647
GAOFEN 12-1             
1 44819U 19082A   23014.23100664  .00000662  00000+0  93341-4 0  9995
2 44819  97.8493  35.1702 0001299  86.0388 274.0978 14.80393798169128
CSG-1                   
1 44873U 19092A   23014.22888969  .00000800  00000+0  10700-3 0  9997
2 44873  97.8866 199.9009 0001376  78.7682 281.3688 14.82164248166328
NUSAT-7 (SOPHIE)        
1 45017U 20003B   23014.43559120  .00028396  00000+0  68441-3 0  9994
2 45017  97.1878  77.1930 0009335 323.3914  93.8634 15.41159666167642
NUSAT-8 (MARIE)         
1 45018U 20003C   23014.42547631  .00037210  00000+0  77193-3 0  9997
2 45018  97.2000  80.3383 0008277 321.5245  93.2001 15.45586845167751
NUSAT-6 (HYPATIA)       
1 46272U 20061A   23014.65103290  .00016297  00000+0  58849-3 0  9997
2 46272  97.3052  86.2916 0007737  51.7391 308.4546 15.28534051131448
NEMO-HD                 
1 46277U 20061F   23014.44832470  .00005286  00000+0  25702-3 0  9996
2 46277  97.3679  84.9342 0002509 122.4998 293.6903 15.18831488130878
NUSAT-12 (DOROTHY)      
1 46827U 20079A   23014.24355382  .00037981  00000+0  79299-3 0  9993
2 46827  97.1717  85.7526 0005623 255.0658 177.3179 15.45413813122567
NUSAT-9 (ALICE)         
1 46828U 20079B   23014.23021407  .00040405  00000+0  81920-3 0  9990
2 46828  97.1595  85.2247 0002064 315.5797 117.7956 15.46275389122611
NUSAT-11 (CORA)         
1 46829U 20079C   23014.62541331  .00040500  00000+0  81999-3 0  9999
2 46829  97.1652  86.0753 0004004 265.9607 237.0194 15.46309933122669
NUSAT-15 (KATHERINE)    
1 46830U 20079D   23014.62979082  .00039715  00000+0  80955-3 0  9996
2 46830  97.1804  87.6257 0002304 230.0189 267.0597 15.46121676122672
NUSAT-14 (HEDY)         
1 46831U 20079E   23014.53466081  .00042135  00000+0  82671-3 0  9994
2 46831  97.1774  87.5315 0004950 245.0310 227.5064 15.47211852122682
NUSAT-10 (CAROLINE)     
1 46832U 20079F   23014.57149074  .00035851  00000+0  75250-3 0  9991
2 46832  97.1774  86.9203 0005017 270.5516 195.3436 15.45273367122646
NUSAT-13 (EMMY)         
1 46833U 20079G   23014.27017811  .00034369  00000+0  73040-3 0  9990
2 46833  97.1771  86.5301 0004942 272.2731 171.1335 15.44916515122595
NUSAT-17 (MARY)         
1 46835U 20079J   23014.59240804  .00035748  00000+0  76032-3 0  9993
2 46835  97.1766  86.5591 0005271 285.7026 210.3425 15.44883213122622
NUSAT-18 (VERA)         
1 46836U 20079K   23014.62709677  .00037785  00000+0  78176-3 0  9990
2 46836  97.1776  87.1976 0005905 290.7937 212.1995 15.45680434122666
NUSAT-16 (LISE)         
1 46840U 20079P   23014.64680469  .00039830  00000+0  81530-3 0  9995
2 46840  97.1824  87.4608 0003655 290.0201 227.1616 15.45994117122669
SENTINEL-6              
1 46984U 20086A   23014.55820870 -.00000061  00000+0  00000+0 0  9998
2 46984  66.0412 210.5511 0007793 265.8667  94.1470 12.80932058100401
GAOFEN 12-2             
1 48079U 21026A   23014.26615240  .00000733  00000+0  10288-3 0  9999
2 48079  97.9101   6.6853 0001291  82.7051 277.4315 14.80350582 96810
PLEIADES NEO 3          
1 48268U 21034A   23014.63236746 -.00000106  00000+0 -68642-5 0  9994
2 48268  97.8940  91.3286 0001311  79.9212 280.2149 14.81672719 92623
NUSAT-19 (ROSALIND)     
1 48905U 21059AC  23014.63048905  .00014365  00000+0  61870-3 0  9991
2 48905  97.5312 148.9625 0010481  61.5407 354.8563 15.22651664 86160
NUSAT-22 (SOFYA)        
1 48919U 21059AS  23014.27470256  .00028777  00000+0  77469-3 0  9997
2 48919  97.3775 150.9717 0013131   7.4598  79.9511 15.37729623 86880
NUSAT-21 (ELISA)        
1 48920U 21059AT  23014.58320693  .00035364  00000+0  82629-3 0  9996
2 48920  97.3721 151.5315 0011722  11.6202  49.4742 15.42027543 86995
NUSAT-20 (GRACE)        
1 48921U 21059AU  23014.54137942  .00032766  00000+0  81208-3 0  9991
2 48921  97.3838 151.8409 0014809  30.9401  39.7240 15.40215588 86953
PLEIADES NEO 4          
1 49070U 21073E   23014.32845900  .00000105  00000+0  19979-4 0  9998
2 49070  97.8940  91.0240 0001401  89.3386 270.7989 14.81674656 76292
LANDSAT 9               
1 49260U 21088A   23014.48050021  .00000746  00000+0  17550-3 0  9997
2 49260  98.2054  86.8654 0001222  83.7991 276.3346 14.57125879 69007
CSG-2                   
1 51444U 22008A   23014.46518493  .00000651  00000+0  88349-4 0  9997
2 51444  97.8864 200.1297 0001301  79.7339 280.4047 14.82161160 51478
INS-2TD                 
1 51658U 22013C   23014.26361034  .00016289  00000+0  81661-3 0  9998
2 51658  97.5540  26.3448 0010252 174.9989 185.1349 15.17381558 50607
GAOFEN 12-3             
1 52912U 22069A   23014.61248750  .00002172  00000+0  28950-3 0  9999
2 52912  97.9694 265.8408 0001011 157.3058 202.8232 14.80667622 29721
